NORAD_CAT_ID,TLE_LINE0,TLE_LINE1,TLE_LINE2,CREATION_DATE,OBJECT_NAME,OBJECT_ID,EPOCH,MEAN_MOTION,ECCENTRICITY,INCLINATION,RA_OF_ASC_NODE,ARG_OF_PERICENTER,MEAN_ANOMALY,REV_AT_EPOCH,BSTAR,MEAN_MOTION_DOT,MEAN_MOTION_DDOT,SEMIMAJOR_AXIS,PERIOD,APOAPSIS,PERIAPSIS,OBJECT_TYPE,COUNTRY_CODE,LAUNCH_DATE,SITE,DECAY_DATE,LAUNCH_YEAR,LAUNCH_SEQ,EPOCH_FINAL,ORBIT_CLASS,EVENT,DURATION,RCS_SIZE
4,0 EXPLORER 1,1 00004U 58001  A 70090.03500497  .07718844 +00000-0 +00000-0 0  9991,2 00004 033.1468 334.6171 0024739 311.5310 048.3249 16.27546304584022,15/08/2004 23:37,EXPLORER 1,1958-001A,31/03/1970,16.27546304,0.0024739,33.1468,334.6171,311.531,48.3249,58402,0.0,0.07718844,0.0,6577.283,88.476,215.419,182.876,PAYLOAD,US,03/01/1958,AFETR,31/03/1970,1958,1,31/03/1970 01:40,LEO,1,4470,MEDIUM
5,0 VANGUARD 1,1 00005U 58002B   25193.51482699 -.00000067  00000-0 -60023-4 0  9994,2 00005  34.2458 282.7160 1841419  46.9912 327.0992 10.85925512406356,12/07/2025 17:51,VANGUARD 1,1958-002B,12/07/2025 12:21,10.85925512,0.1841419,34.2458,282.716,46.9912,327.0992,40635,-6e-05,-6.7e-07,0.0,8613.939,132.606,3821.992,649.617,PAYLOAD,US,17/03/1958,AFETR,,1958,2,13/07/2025 00:42,MEO,0,24590,LARGE
8,0 SPUTNIK 3,1 00008U 58004  B 60095.16166626  .02607090 +00000-0 +00000-0 0  9993,2 00008 065.0599 163.5585 0088318 135.6760 224.6847 16.28328133100004,15/08/2004 23:35,SPUTNIK 3,1958-004B,04/04/1960 03:52,16.28328133,0.0088318,65.0599,163.5585,135.676,224.6847,10000,0.0,0.0260709,0.0,6575.177,88.434,255.113,138.972,PAYLOAD,CIS,05/01/1958,TTMTR,06/04/1960,1958,4,04/04/1960 07:45,LEO,1,822,MEDIUM
9,0 EXPLORER 4,1 00009U 58005  A 59275.28696823  .00892850 +00000-0 +00000-0 0  9991,2 00009 050.2549 082.4216 0254534 057.7226 303.5234 15.51612549060703,15/08/2004 23:35,EXPLORER 4,1958-005A,02/10/1959 06:53,15.51612549,0.0254534,50.2549,82.4216,57.7226,303.5234,6070,0.0,0.0089285,0.0,6790.158,92.806,584.856,239.191,PAYLOAD,US,07/01/1958,AFETR,23/10/1959,1958,5,02/10/1959 13:46,LEO,1,654,MEDIUM
11,0 VANGUARD 2,1 00011U 59001A   25193.55398380  .00000623  00000-0  30886-3 0  9997,2 00011  32.8781 290.0336 1449270 284.8718  59.6190 11.89922137494999,12/07/2025 17:51,VANGUARD 2,1959-001A,12/07/2025 13:17,11.89922137,0.144927,32.8781,290.0336,284.8718,59.619,49499,0.00030886,6.23e-06,0.0,8104.436,121.016,2900.853,551.75,PAYLOAD,US,17/02/1959,AFETR,,1959,1,13/07/2025 02:35,LEO,0,24253,MEDIUM
12,0 VANGUARD R/B,1 00012U 59001B   25193.53843712  .00000729  00000-0  43608-3 0  9993,2 00012  32.9001 341.7658 1647615 107.1100 271.5953 11.47786356492278,12/07/2025 17:51,VANGUARD R/B,1959-001B,12/07/2025 12:55,11.47786356,0.1647615,32.9001,341.7658,107.11,271.5953,49227,0.00043608,7.29e-06,0.0,8301.587,125.459,3291.234,555.67,ROCKET BODY,US,17/02/1959,AFETR,,1959,1,13/07/2025 01:50,LEO,0,24253,LARGE
15,0 EXPLORER 6,1 00015U 59004  A 59272.62543869  .00008106 +00000-0 +00000-0 0  9997,2 00015 046.9509 049.6823 7601812 047.2577 341.8928 01.88913924001001,15/08/2004 23:35,EXPLORER 6,1959-004A,29/09/1959 15:00,1.88913924,0.7601812,46.9509,49.6823,47.2577,341.8928,100,0.0,8.11e-05,0.0,27641.364,762.251,42275.674,250.783,PAYLOAD,US,03/01/1959,AFETR,30/06/1961,1959,4,30/09/1959 06:01,HEO,1,909,UNKNOWN
16,0 VANGUARD R/B,1 00016U 58002A   25193.41683771 -.00000051  00000-0 -54414-4 0  9999,2 00016  34.2581 207.6719 2022960 125.7392 254.8608 10.49573484653219,12/07/2025 17:51,VANGUARD R/B,1958-002A,12/07/2025 10:00,10.49573484,0.202296,34.2581,207.6719,125.7392,254.8608,65321,-5.44e-05,-5.1e-07,0.0,8811.705,137.199,4216.142,650.997,ROCKET BODY,US,17/03/1958,AFETR,,1958,2,12/07/2025 20:00,MEO,0,24590,LARGE
17,0 THOR ABLE R/B,1 00017U 59004  B 61008.85131000  .00070225 +00000-0 +00000-0 0  9995,2 00017 047.1000 284.3200 7526400 171.0000 203.9657 02.00290678010078,15/08/2004 23:35,THOR ABLE R/B,1959-004B,08/01/1961 20:25,2.00290678,0.75264,47.1,284.32,171.0,203.9657,1007,0.0,0.00070225,0.0,26584.487,718.955,40214.901,197.803,ROCKET BODY,US,05/01/1959,AFWTR,30/06/1961,1959,4,09/01/1961 16:51,MEO,1,907,LARGE
18,0 DISCOVERER 5,1 00018U 59005  A 59269.32477950  .04655228 +00000-0 +00000-0 0  9998,2 00018 079.9899 251.4819 0140209 012.7649 347.4143 16.16111033006800,15/08/2004 23:35,DISCOVERER 5,1959-005A,26/09/1959 07:47,16.16111033,0.0140209,79.9899,251.4819,12.7649,347.4143,680,0.0,0.04655228,0.0,6608.273,89.102,322.792,137.484,PAYLOAD,DEN,07/01/1959,AFWTR,28/09/1959,1959,5,26/09/1959 15:35,LEO,1,264,MEDIUM
19,0 DISCOVERER 6,1 00019U 59006  A 59278.50940704  .01114833 +00000-0 +00000-0 0  9991,2 00019 083.9999 286.5094 0222212 326.3932 034.3056 15.83731828007208,15/08/2004 23:35,DISCOVERER 6,1959-006A,05/10/1959 12:13,15.83731828,0.0222212,83.9999,286.5094,326.3932,34.3056,720,0.0,0.01114833,0.0,6698.039,90.924,468.742,171.065,PAYLOAD,DEN,11/01/1959,AFWTR,20/10/1959,1959,6,06/10/1959 00:27,LEO,1,282,MEDIUM
20,0 VANGUARD 3,1 00020U 59007A   25193.63003394  .00000869  00000-0  35950-3 0  9999,2 00020  33.3432  48.6223 1641311  34.3816 335.2794 11.60743173445121,12/07/2025 17:51,VANGUARD 3,1959-007A,12/07/2025 15:07,11.60743173,0.1641311,33.3432,48.6223,34.3816,335.2794,44512,0.0003595,8.69e-06,0.0,8239.694,124.058,3213.949,509.169,PAYLOAD,US,18/09/1959,AFETR,,1959,7,13/07/2025 06:14,LEO,0,24040,MEDIUM
22,0 EXPLORER 7,1 00022U 59009A   25193.56195783  .00008495  00000-0  36645-3 0  9994,2 00022  50.2737 327.5589 0091008 204.6686 154.9905 15.19629843748548,12/07/2025 17:51,EXPLORER 7,1959-009A,12/07/2025 13:29,15.19629843,0.0091008,50.2737,327.5589,204.6686,154.9905,74854,0.00036645,8.5e-05,0.0,6885.095,94.76,569.62,444.301,PAYLOAD,US,13/10/1959,AFETR,,1959,9,13/07/2025 02:58,LEO,0,24015,MEDIUM
23,0 JUNO II R/B,1 00023U 59009  B 89195.78596028  .02731772 +19637-1 +30065-2 0  9997,2 00023 050.2674 226.9734 0018343 032.5712 327.5638 16.13561323580506,17/08/2004 14:36,JUNO II R/B,1959-009B,14/07/1989 18:51,16.13561323,0.0018343,50.2674,226.9734,32.5712,327.5638,58050,0.0030065,0.02731772,0.019637,6615.232,89.243,249.232,224.963,ROCKET BODY,US,13/10/1959,AFETR,16/07/1989,1959,9,15/07/1989 13:43,LEO,1,10869,LARGE
24,0 DISCOVERER 7,1 00024U 59010  A 59324.76896999  .03159051 +00000-0 +00000-0 0  9991,2 00024 081.6399 044.7879 0281000 119.5599 241.8752 15.73099002002000,15/08/2004 23:35,DISCOVERER 7,1959-010A,20/11/1959 18:27,15.73099002,0.0281,81.6399,44.7879,119.5599,241.8752,200,0.0,0.03159051,0.0,6728.187,91.539,539.114,160.99,PAYLOAD,DEN,13/01/1959,AFWTR,26/11/1959,1959,10,21/11/1959 12:54,LEO,1,317,MEDIUM
25,0 DISCOVERER 8,1 00025U 59011  A 60067.96672797  .09310919 +00000-0 +00000-0 0  9997,2 00025 080.6499 290.2565 0094843 170.3363 189.7568 16.35855842015945,15/08/2004 23:35,DISCOVERER 8,1959-011A,07/03/1960 23:12,16.35855842,0.0094843,80.6499,290.2565,170.3363,189.7568,1594,0.0,0.09310919,0.0,6554.99,88.027,239.025,114.686,PAYLOAD,DEN,15/01/1959,AFWTR,08/03/1960,1959,11,08/03/1960 22:24,LEO,1,418,MEDIUM
26,0 DISCOVERER 5 CAPSULE,1 00026U 59005  B 61041.29007435  .03920686 +00000-0 +00000-0 0  9993,2 00026 078.9399 321.1425 0103758 073.2921 287.2863 16.22923515052909,15/08/2004 23:35,DISCOVERER 5 CAPSULE,1959-005B,10/02/1961 06:57,16.22923515,0.0103758,78.9399,321.1425,73.2921,287.2863,5290,0.0,0.03920686,0.0,6589.767,88.728,280.006,143.258,PAYLOAD,DEN,09/01/1959,AFWTR,11/02/1961,1959,5,10/02/1961 13:55,LEO,1,764,MEDIUM
28,0 THOR ABLE R/B,1 00028U 60002  A 91183.48209206  .20810904 +57222-4 +14739-2 0  9993,2 00028 048.3426 203.3369 0003628 333.1829 026.9220 16.40114415676819,17/08/2004 14:45,THOR ABLE R/B,1960-002A,02/07/1991 11:34,16.40114415,0.0003628,48.3426,203.3369,333.1829,26.922,67681,0.0014739,0.20810904,5.72e-05,6543.639,87.798,167.878,163.13,ROCKET BODY,US,01/04/1960,AFETR,03/07/1991,1960,2,02/07/1991 23:08,LEO,1,11415,LARGE
29,0 TIROS 1,1 00029U 60002B   25193.38689031  .00000232  00000-0  60849-4 0  9995,2 00029  48.3768 198.6766 0022978 246.3726 113.4774 14.78052031491855,12/07/2025 17:51,TIROS 1,1960-002B,12/07/2025 09:17,14.78052031,0.0022978,48.3768,198.6766,246.3726,113.4774,49185,6.08e-05,2.32e-06,0.0,7013.617,97.426,651.598,619.366,PAYLOAD,US,01/04/1960,AFETR,,1960,2,12/07/2025 18:34,LEO,0,23844,MEDIUM
30,0 THOR ABLESTAR R/B,1 00030U 60003  A 61228.60062239  .02125614 +00000-0 +00000-0 0  9990,2 00030 051.2500 356.4892 0000000 331.9473 028.0526 16.29358349075909,15/08/2004 23:35,THOR ABLESTAR R/B,1960-003A,16/08/1961 14:24,16.29358349,0.0,51.25,356.4892,331.9473,28.0526,7590,0.0,0.02125614,0.0,6572.405,88.378,194.27,194.27,ROCKET BODY,US,03/01/1960,AFWTR,18/08/1961,1960,3,17/08/1961 04:49,LEO,1,593,LARGE
31,0 TRANSIT 1B,1 00031U 60003  B 67275.67017494  .01669365 +00000-0 +00000-0 0  9994,2 00031 051.2007 317.7772 0014942 349.5805 010.4801 16.23394966418285,15/08/2004 23:35,TRANSIT 1B,1960-003B,02/10/1967 16:05,16.23394966,0.0014942,51.2007,317.7772,349.5805,10.4801,41828,0.0,0.01669365,0.0,6588.491,88.702,220.201,200.511,PAYLOAD,US,05/01/1960,AFWTR,05/10/1967,1960,3,03/10/1967 08:10,LEO,1,2830,MEDIUM
32,0 DISCOVERER 11,1 00032U 60004  A 60115.70328308  .04582881 +00000-0 +00000-0 0  9995,2 00032 080.0999 205.8192 0176930 121.6216 239.2608 16.05408684001401,15/08/2004 23:35,DISCOVERER 11,1960-004A,24/04/1960 16:52,16.05408684,0.017693,80.0999,205.8192,121.6216,239.2608,140,0.0,0.04582881,0.0,6637.609,89.696,376.913,142.035,PAYLOAD,DEN,09/01/1960,AFWTR,26/04/1960,1960,4,25/04/1960 09:45,LEO,1,108,MEDIUM
33,0 THOR ABLESTAR DEB,1 00033U 60003  C 60280.33271408  .00001932 +00000-0 +00000-0 0  9994,2 00033 051.2879 136.0668 0242757 196.7800 163.6100 15.38343354027003,15/08/2004 23:35,THOR ABLESTAR DEB,1960-003C,06/10/1960 07:59,15.38343354,0.0242757,51.2879,136.0668,196.78,163.61,2700,0.0,1.93e-05,0.0,6829.149,93.607,616.796,285.231,DEBRIS,US,07/01/1960,AFWTR,17/07/1960,1960,3,06/10/1960 15:58,LEO,1,192,SMALL
